FLOCK 4H-20             
1 66723U 25276BK  26121.93681906  .00007593  00000+0  34920-3 0  9994
2 66723  97.4232 196.5392 0004254 103.2177 256.9533 15.20619238 22660
FLOCK 4H-21             
1 66724U 25276BL  26121.88286051  .00006660  00000+0  30987-3 0  9994
2 66724  97.4197 196.3875 0004058 104.5953 255.5733 15.20264275 22656
FLOCK 4H-22             
1 66725U 25276BM  26121.43808015  .00009297  00000+0  43965-3 0  9995
2 66725  97.4186 195.7363 0003125 161.4175 198.7174 15.19595973 23324
FLOCK 4H-23             
1 66726U 25276BN  26121.73449497  .00007835  00000+0  37521-3 0  9991
2 66726  97.4258 196.0914 0005548 144.1214 216.0394 15.19202283 23365
FLOCK 4H-24             
1 66727U 25276BP  26121.72423675  .00007504  00000+0  35858-3 0  9995
2 66727  97.4252 196.1030 0004729 155.2031 204.9432 15.19297582 23365
FLOCK 4H-25             
1 66728U 25276BQ  26121.63362650  .00007330  00000+0  34182-3 0  9997
2 66728  97.4210 196.1327 0002208  96.6636 263.4851 15.20154957 22643
FLOCK 4H-26             
1 66729U 25276BR  26121.94263449  .00007124  00000+0  34286-3 0  9994
2 66729  97.4207 196.1732 0005677 155.5423 204.6082 15.19060206 23399
FLOCK 4H-27             
1 66730U 25276BS  26121.91726185  .00006542  00000+0  30781-3 0  9993
2 66730  97.4181 196.3133 0002379 107.2103 252.9393 15.19887461 23407
FLOCK 4H-28             
1 66731U 25276BT  26121.94094908  .00007243  00000+0  34799-3 0  9990
2 66731  97.4191 196.1508 0005253 156.7490 203.3984 15.19115635 23396
FLOCK 4H-29             
1 66732U 25276BU  26121.92886463  .00006505  00000+0  31214-3 0  9993
2 66732  97.4185 196.1470 0003867 160.4428 199.6956 15.19203260 23398
FLOCK 4H-30             
1 66733U 25276BV  26121.79432423  .00007568  00000+0  36171-3 0  9999
2 66733  97.4247 196.1499 0005043 155.2393 204.9085 15.19286260 23372
FLOCK 4H-31             
1 66734U 25276BW  26121.93709460  .00007022  00000+0  33762-3 0  9992
2 66734  97.4182 196.1343 0004388 159.4614 200.6798 15.19106829 23390
FLOCK 4H-32             
1 66735U 25276BX  26121.93066974  .00008219  00000+0  39325-3 0  9999
2 66735  97.4240 196.2572 0005480 153.2409 206.9110 15.19217160 23397
FLOCK 4H-33             
1 66736U 25276BY  26121.74805315  .00007299  00000+0  33789-3 0  9994
2 66736  97.4236 196.3434 0003841  99.2489 260.9181 15.20407170 23388
FLOCK 4H-34             
1 66737U 25276BZ  26121.64880718  .00007861  00000+0  36867-3 0  9999
2 66737  97.4252 196.1998 0004043 105.3260 254.8422 15.19933911 22611
FLOCK 4H-35             
1 66738U 25276CA  26121.76426250  .00006735  00000+0  31430-3 0  9990
2 66738  97.4214 196.2730 0003511  96.2595 263.9041 15.20161159 22676
FLOCK 4H-36             
1 66739U 25276CB  26121.72521067  .00006515  00000+0  30651-3 0  9999
2 66739  97.4260 196.2691 0004174 113.1235 247.0440 15.19889837 23372
